STARLINK-36816          
1 67891U 26035N   26066.58334491 -.01392895  56306-3 -39939-2 0  9991
2 67891  97.2700 358.8031 0001440  86.2142  40.2273 15.93224979  3314
STARLINK-36813          
1 67892U 26035P   26066.58334491 -.01361937  53935-3 -39331-2 0  9996
2 67892  97.2688 358.7908 0001345  87.3642  10.2596 15.93083706  3410
STARLINK-36803          
1 67893U 26035Q   26066.58334491 -.01169074  40569-3 -34087-2 0  9997
2 67893  97.2709 358.7803 0001323  95.3835 332.1623 15.92871018  3415
STARLINK-36846          
1 67894U 26035R   26066.58334491 -.01233220  44824-3 -35821-2 0  9998
2 67894  97.2704 358.7846 0001278  95.7233 342.5221 15.92953759  3415
STARLINK-36866          
1 67895U 26035S   26066.58334491 -.01302002  49592-3 -37718-2 0  9998
2 67895  97.2703 358.7866 0001315  80.2808   2.7665 15.93015100  3413
STARLINK-36877          
1 67896U 26035T   26066.58334491 -.01184958  41609-3 -34498-2 0  9990
2 67896  97.2704 358.7823 0001249  86.0556 347.0174 15.92902584  3418
STARLINK-36870          
1 67897U 26035U   26066.58334491 -.01343724  52581-3 -38902-2 0  9994
2 67897  97.2699 358.7883 0001402  91.8115 356.5974 15.93033176  3410
STARLINK-36810          
1 67898U 26035V   26066.58334491 -.01342842  52531-3 -38827-2 0  9996
2 67898  97.2697 358.7900 0001356  89.6673   3.2218 15.93057548  3417
STARLINK-36878          
1 67899U 26035W   26066.58334491 -.01366822  54317-3 -39384-2 0  9994
2 67899  97.2695 358.7937 0001476  94.7274   7.0656 15.93126835  3417
STARLINK-36361          
1 67900U 26035X   26066.58334491 -.01368195  54429-3 -39384-2 0  9996
2 67900  97.2696 358.7957 0001433  94.4163  12.1442 15.93146833  3410
STARLINK-36336          
1 67901U 26035Y   26066.58334491 -.01379426  55299-3 -39565-2 0  9993
2 67901  97.2706 358.8026 0001446  91.1471  29.8770 15.93217307  3460
STARLINK-36876          
1 67902U 26035Z   26066.58334491 -.01372853  54794-3 -39439-2 0  9990
2 67902  97.2703 358.7988 0001432  93.9635  16.9088 15.93185791  3416
STARLINK-36257          
1 67903U 26035AA  26066.58334491 -.01384299  55665-3 -39691-2 0  9996
2 67903  97.2701 358.7995 0001300  88.0205  27.3233 15.93224882  3463
STARLINK-36912          
1 67961U 26038A   26066.58334491 -.01605655  74185-3 -43286-2 0  9998
2 67961  97.2751  76.7026 0001390  94.3722 122.1272 15.94431746  2867
STARLINK-36881          
1 67962U 26038B   26066.58334491 -.01624296  75869-3 -43570-2 0  9997
2 67962  97.2749  76.7033 0001331  98.1705 120.7426 15.94529234  2866
STARLINK-36357          
1 67963U 26038C   26066.58334491 -.01601362  74081-3 -42393-2 0  9994
2 67963  97.2744  76.7064 0001380  92.6177 132.8651 15.94774900  2868
